norad_id,name,regime,epoch,line1,line2,inclination,eccentricity,mean_motion,raan,arg_pericenter,mean_anomaly
36395,SDO,IGO,25246.07495355,1 36395U 10005A   25246.07495355 -.00000072  00000-0  00000-0 0 75172,2 36395  34.0422  90.7270 0001173 114.6005  62.4146  1.00275468 57184,34.0422,0.0001173,1.00275468,90.727,114.6005,62.4146
36395,SDO,IGO,25246.57456477,1 36395U 10005A   25246.57456477 -.00000070  00000-0  00000-0 0 75188,2 36395  34.0432  90.7192 0001180 115.1354 242.2441  1.00275402 57183,34.0432,0.000118,1.00275402,90.7192,115.1354,242.2441
36395,SDO,IGO,25247.07420936,1 36395U 10005A   25247.07420936 -.00000068  00000-0  00000-0 0 75193,2 36395  34.0442  90.7115 0001198 115.7632  61.9922  1.00275326 57199,34.0442,0.0001198,1.00275326,90.7115,115.7632,61.9922
36395,SDO,IGO,25248.07323812,1 36395U 10005A   25248.07323812 -.00000064  00000-0  00000-0 0 75218,2 36395  34.0463  90.6960 0001233 116.6975  61.7157  1.00275180 57207,34.0463,0.0001233,1.0027518,90.696,116.6975,61.7157
36395,SDO,IGO,25248.57279448,1 36395U 10005A   25248.57279448 -.00000061  00000-0  00000-0 0 75226,2 36395  34.0473  90.6882 0001247 116.7355 242.0218  1.00275092 57203,34.0473,0.0001247,1.00275092,90.6882,116.7355,242.0218
36395,SDO,IGO,25249.57194973,1 36395U 10005A   25249.57194973 -.00000058  00000-0  00000-0 0 75233,2 36395  34.0495  90.6725 0001282 116.2110 243.2491  1.00274940 57214,34.0495,0.0001282,1.0027494,90.6725,116.211,243.2491
36395,SDO,IGO,25250.07158648,1 36395U 10005A   25250.07158648 -.00000056  00000-0  00000-0 0 75248,2 36395  34.0506  90.6647 0001303 115.8968  63.9359  1.00274896 57221,34.0506,0.0001303,1.00274896,90.6647,115.8968,63.9359
36395,SDO,IGO,25250.57110466,1 36395U 10005A   25250.57110466 -.00000055  00000-0  00000-0 0 75259,2 36395  34.0518  90.6568 0001323 115.1233 245.0391  1.00274795 57234,34.0518,0.0001323,1.00274795,90.6568,115.1233,245.0391
36395,SDO,IGO,25251.07073730,1 36395U 10005A   25251.07073730 -.00000055  00000-0  00000-0 0 75268,2 36395  34.0529  90.6489 0001348 114.8567  65.6766  1.00274758 57232,34.0529,0.0001348,1.00274758,90.6489,114.8567,65.6766
36395,SDO,IGO,25252.06988343,1 36395U 10005A   25252.06988343 -.00000056  00000-0  00000-0 0 75275,2 36395  34.0553  90.6331 0001399 113.7630  67.4685  1.00274623 57242,34.0553,0.0001399,1.00274623,90.6331,113.763,67.4685
36395,SDO,IGO,25253.06896786,1 36395U 10005A   25253.06896786 -.00000060  00000-0  00000-0 0 75281,2 36395  34.0576  90.6174 0001443 112.6483  69.2587  1.00274498 57258,34.0576,0.0001443,1.00274498,90.6174,112.6483,69.2587
36395,SDO,IGO,25253.56855769,1 36395U 10005A   25253.56855769 -.00000063  00000-0  00000-0 0 75296,2 36395  34.0588  90.6095 0001477 112.2894 249.9722  1.00274428 57264,34.0588,0.0001477,1.00274428,90.6095,112.2894,249.9722
36395,SDO,IGO,25254.06817936,1 36395U 10005A   25254.06817936 -.00000066  00000-0  00000-0 0 75312,2 36395  34.0600  90.6016 0001494 112.4223  70.2056  1.00274388 57269,34.06,0.0001494,1.00274388,90.6016,112.4223,70.2056
36395,SDO,IGO,25254.56769189,1 36395U 10005A   25254.56769189 -.00000069  00000-0  00000-0 0 75327,2 36395  34.0612  90.5938 0001514 111.8392 251.1154  1.00274340 57275,34.0612,0.0001514,1.0027434,90.5938,111.8392,251.1154
36395,SDO,IGO,25255.56681884,1 36395U 10005A   25255.56681884 -.00000075  00000-0  00000-0 0 75342,2 36395  34.0636  90.5780 0001527 110.6514 252.9934  1.00274276 57287,34.0636,0.0001527,1.00274276,90.578,110.6514,252.9934
36395,SDO,IGO,25256.56591477,1 36395U 10005A   25256.56591477 -.00000080  00000-0  00000-0 0 75369,2 36395  34.0661  90.5623 0001532 109.1793 255.1441  1.00274235 57293,34.0661,0.0001532,1.00274235,90.5623,109.1793,255.1441
36395,SDO,IGO,25257.06553183,1 36395U 10005A   25257.06553183 -.00000082  00000-0  00000-0 0 75370,2 36395  34.0673  90.5545 0001525 108.0114  76.6764  1.00274219 57292,34.0673,0.0001525,1.00274219,90.5545,108.0114,76.6764
36395,SDO,IGO,25257.56511815,1 36395U 10005A   25257.56511815 -.00000083  00000-0  00000-0 0 75383,2 36395  34.0685  90.5467 0001531 107.6958 257.3450  1.00274223 57303,34.0685,0.0001531,1.00274223,90.5467,107.6958,257.345
36395,SDO,IGO,25258.19268734,1 36395U 10005A   25258.19268734 -.00000083  00000-0  00000-0 0 75405,2 36395  34.0699  90.5370 0001528 106.4465 125.1500  1.00274218 57309,34.0699,0.0001528,1.00274218,90.537,106.4465,125.15
36395,SDO,IGO,25258.56420919,1 36395U 10005A   25258.56420919 -.00000082  00000-0  00000-0 0 75411,2 36395  34.0708  90.5313 0001530 106.3652 259.3523  1.00274241 57319,34.0708,0.000153,1.00274241,90.5313,106.3652,259.3523
36395,SDO,IGO,25259.06375809,1 36395U 10005A   25259.06375809 -.00000081  00000-0  00000-0 0    17,2 36395  34.0720  90.5236 0001530 105.4885  80.5686  1.00274261 57311,34.072,0.000153,1.00274261,90.5236,105.4885,80.5686
36395,SDO,IGO,25260.04003008,1 36395U 10005A   25260.04003008 -.00000078  00000-0  00000-0 0    12,2 36395  34.0742  90.5087 0001529 104.9922  73.5039  1.00274314 57327,34.0742,0.0001529,1.00274314,90.5087,104.9922,73.5039
36395,SDO,IGO,25260.55322545,1 36395U 10005A   25260.55322545 -.00000075  00000-0  00000-0 0    15,2 36395  34.0754  90.5008 0001515 105.1470 258.6151  1.00274347 57337,34.0754,0.0001515,1.00274347,90.5008,105.147,258.6151
36395,SDO,IGO,25264.51545278,1 36395U 10005A   25264.51545278 -.00000056  00000-0  00000-0 0    14,2 36395  34.0837  90.4408 0001416 107.9664 246.1804  1.00274591 57368,34.0837,0.0001416,1.00274591,90.4408,107.9664,246.1804
36395,SDO,IGO,25272.48271116,1 36395U 10005A   25272.48271116 -.00000056  00000-0  00000-0 0    16,2 36395  34.0995  90.3211 0001410 124.5015 225.8670  1.00274282 57444,34.0995,0.000141,1.00274282,90.3211,124.5015,225.867
36395,SDO,IGO,25273.45734940,1 36395U 10005A   25273.45734940 -.00000053  00000-0  00000-0 0  5486,2 36395  34.1015  90.3064 0001438 125.9101 216.3067  1.00274146 57450,34.1015,0.0001438,1.00274146,90.3064,125.9101,216.3067
36395,SDO,IGO,25276.48657216,1 36395U 10005A   25276.48657216 -.00000040  00000-0  00000-0 0  5501,2 36395  34.1079  90.2598 0001531 127.4731 228.3029  1.00273640 57483,34.1079,0.0001531,1.0027364,90.2598,127.4731,228.3029
36395,SDO,IGO,25277.47666431,1 36395U 10005A   25277.47666431 -.00000037  00000-0  00000+0 0  4919,2 36395  34.1101  90.2443 0001564 126.8073 226.3943  1.00273480 57492,34.1101,0.0001564,1.0027348,90.2443,126.8073,226.3943
36395,SDO,IGO,25279.51713470,1 36395U 10005A   25279.51713470 -.00000038  00000-0  00000-0 0  5544,2 36395  34.1151  90.2124 0001648 124.1784 245.6376  1.00273204 57528,34.1151,0.0001648,1.00273204,90.2124,124.1784,245.6376
36395,SDO,IGO,25280.50219745,1 36395U 10005A   25280.50219745 -.00000043  00000-0  00000-0 0  5569,2 36395  34.1175  90.1969 0001683 123.1496 242.2748  1.00273085 57532,34.1175,0.0001683,1.00273085,90.1969,123.1496,242.2748
36395,SDO,IGO,25281.50376448,1 36395U 10005A   25281.50376448 -.00000049  00000-0  00000+0 0  4940,2 36395  34.1200  90.1812 0001716 122.6763 244.3143  1.00272979 57540,34.12,0.0001716,1.00272979,90.1812,122.6763,244.3143
36395,SDO,IGO,25281.50376449,1 36395U 10005A   25281.50376449 -.00000049  00000-0  00000-0 0  5572,2 36395  34.1200  90.1812 0001716 122.6763 244.3143  1.00272979 57540,34.12,0.0001716,1.00272979,90.1812,122.6763,244.3143
36395,SDO,IGO,25281.97212514,1 36395U 10005A   25281.97212514 -.00000052  00000-0  00000+0 0  4959,2 36395  34.1213  90.1738 0001727 123.3853  52.6837  1.00272936 57544,34.1213,0.0001727,1.00272936,90.1738,123.3853,52.6837
36395,SDO,IGO,25281.97212515,1 36395U 10005A   25281.97212515 -.00000052  00000-0  00000-0 0  5581,2 36395  34.1213  90.1738 0001727 123.3853  52.6837  1.00272936 57544,34.1213,0.0001727,1.00272936,90.1738,123.3853,52.6837
36395,SDO,IGO,25282.97108506,1 36395U 10005A   25282.97108506 -.00000058  00000-0  00000-0 0  5593,2 36395  34.1237  90.1581 0001721 121.9773  54.7163  1.00272856 57552,34.1237,0.0001721,1.00272856,90.1581,121.9773,54.7163
36395,SDO,IGO,25283.47057551,1 36395U 10005A   25283.47057551 -.00000061  00000-0  00000-0 0  5608,2 36395  34.1250  90.1503 0001724 121.5086 235.5009  1.00272833 57550,34.125,0.0001724,1.00272833,90.1503,121.5086,235.5009
36395,SDO,IGO,25284.46947315,1 36395U 10005A   25284.46947315 -.00000065  00000-0  00000-0 0  5619,2 36395  34.1274  90.1346 0001708 120.1361 237.4754  1.00272801 57568,34.1274,0.0001708,1.00272801,90.1346,120.1361,237.4754
36395,SDO,IGO,25284.97683701,1 36395U 10005A   25284.97683701 -.00000067  00000-0  00000-0 0  5624,2 36395  34.1286  90.1268 0001692 119.1727  61.5971  1.00272793 57578,34.1286,0.0001692,1.00272793,90.1268,119.1727,61.5971
36395,SDO,IGO,25285.47128053,1 36395U 10005A   25285.47128053 -.00000067  00000-0  00000-0 0  5635,2 36395  34.1298  90.1191 0001677 118.0820 241.1817  1.00272800 57575,34.1298,0.0001677,1.002728,90.1191,118.082,241.1817
36395,SDO,IGO,25285.96794719,1 36395U 10005A   25285.96794719 -.00000067  00000-0  00000-0 0  5648,2 36395  34.1311  90.1115 0001690 118.9085  59.6517  1.00272813 57588,34.1311,0.000169,1.00272813,90.1115,118.9085,59.6517
36395,SDO,IGO,25286.46737954,1 36395U 10005A   25286.46737954 -.00000066  00000-0  00000-0 0  5652,2 36395  34.1324  90.1039 0001680 119.1268 239.7282  1.00272833 57584,34.1324,0.000168,1.00272833,90.1039,119.1268,239.7282
36395,SDO,IGO,25286.96689909,1 36395U 10005A   25286.96689909 -.00000064  00000-0  00000-0 0  5662,2 36395  34.1337  90.0962 0001676 118.1977  60.9838  1.00272864 57599,34.1337,0.0001676,1.00272864,90.0962,118.1977,60.9838
36395,SDO,IGO,25287.52451038,1 36395U 10005A   25287.52451038 -.00000062  00000-0  00000-0 0  5674,2 36395  34.1346  90.0878 0001649 117.3419 263.1371  1.00272903 57602,34.1346,0.0001649,1.00272903,90.0878,117.3419,263.1371
36395,SDO,IGO,25288.46535037,1 36395U 10005A   25288.46535037 -.00000057  00000-0  00000-0 0  5696,2 36395  34.1367  90.0735 0001626 117.7125 242.4094  1.00272975 57612,34.1367,0.0001626,1.00272975,90.0735,117.7125,242.4094
